#cP2023  4  4  0  0  0.00000000      96 ORBIT IGS20 HLM  IGS
## 2256 172800.00000000   900.00000000 60038 0.0000000000000
+   32   G01G02G03G04G05G06G07G08G09G10G11G12G13G14G15G16G17
+        G18G19G20G21G22G23G24G25G26G27G28G29G30G31G32  0  0
+          0  0  0  0  0  0  0  0  0  0  0  0  0  0  0  0  0
+          0  0  0  0  0  0  0  0  0  0  0  0  0  0  0  0  0
+          0  0  0  0  0  0  0  0  0  0  0  0  0  0  0  0  0
++         2  2  2  2  2  2  2  2  2  2  3  2  2  2  2  2  2
++         3  2  2  2  3  2  2  2  2  2  3  2  3  2  2  0  0
++         0  0  0  0  0  0  0  0  0  0  0  0  0  0  0  0  0
++         0  0  0  0  0  0  0  0  0  0  0  0  0  0  0  0  0
++         0  0  0  0  0  0  0  0  0  0  0  0  0  0  0  0  0
%c G  cc GPS ccc cccc cccc cccc cccc ccccc ccccc ccccc ccccc
%c cc cc ccc ccc cccc cccc cccc cccc ccccc ccccc ccccc ccccc
%f  1.2500000  1.025000000  0.00000000000  0.000000000000000
%f  0.0000000  0.000000000  0.00000000000  0.000000000000000
%i    0    0    0    0      0      0      0      0         0
%i    0    0    0    0      0      0      0      0         0
/* RAPID ORBIT COMBINATION FROM WEIGHTED AVERAGE OF:        
/* cod emr esa gfz grg jpl ngs sio usn whu                  
/* REFERENCED TO IGS TIME (IGST) AND TO WEIGHTED MEAN POLE: 
/* PCV:IGS20_2233 OL/AL:FES2014b NONE     Y  ORB:CMB CLK:CMB
*  2023  4  4  6  0  0.00000000
PG01 -13157.670476  13689.530126  18089.122788    196.397495  6  8  5 102       
PG02  10648.619814 -18220.660127 -15657.268022   -609.208002  3  8  5  65       
PG03 -22872.116577  13111.732468  -2762.663364   -336.835458  5  6  7  69       
PG04 -15460.658064   6476.811717 -20616.911862      8.533874  4  3  4  85       
PG05  23313.635035  -2568.274806 -12747.274012   -122.064768  4  4    101       
PG06   5788.699276  23071.021537 -11648.627948    585.395342  5  7  7  96       
PG07  -6808.328441  24320.218487  -6921.505665    208.999817  5  9  6 101       
PG08 -22866.258455  -3607.268573  13300.935669   -116.120346  2  7  7 105       
PG09  -4959.771725  14885.653565 -21496.572892   -187.186168  2  5  5 111       
PG10  -1944.858346 -15343.167054  21729.602268    -31.358486  3  6  3  89       
PG11  12819.963068  11197.920907 -20388.737676   -151.200964  6  6  5  70       
PG12  24375.569361 -10401.646420   -886.204430   -359.692778  4  7  5  77       
PG13  22112.050340  12048.333095   8584.992528    500.604049  4  8  5 105       
PG14  -1556.441227  16772.992066  20510.932838     14.819682  4  7  7  94       
PG15  23047.735524    638.070823  12960.949183     27.522784  4  5  6  76       
PG16 -22429.386379  -2376.748367 -14685.183039   -511.237530  5  8  5  96       
PG17   8267.152198  19967.056035  15800.682394    708.903442  5  9  5  97       
PG18   4935.033898 -25745.066305  -3751.424933   -208.905796  5  8  1  93       
PG19  16313.643565  19936.056136   6824.094060    299.007707  5  8  6  82       
PG20  17534.777987   4582.349998 -19315.805742    441.018397  6  6  3  71       
PG21 -15211.645125   3958.876253  21883.878584    154.301028  6  7  4 120       
PG22 -18195.928998 -18984.849782   4759.396885    457.810362  7 11  7  88       
PG23  10697.952327 -18023.991219  16229.810373     14.578734  5  8  3  89       
PG24  14426.329218  -9528.795486  19701.475784   -138.296263  4  5  5 100       
PG25  17868.060169 -16864.698541 -10047.524674    432.952510  5  6  5  78       
PG26 -12862.010263 -10472.696220 -20913.242639    241.903309  7  9  3  97       
PG27 -23237.239294 -12787.958112   3502.209669     66.458476  5  8  7 103       
PG28  -5887.228896 -24006.639609  -9754.942416     58.522624  6 11  7  82       
PG29   9495.594082 -11462.344564 -22048.643471   -593.987149  7  5  4  71       
PG30   1207.348983  26010.477968   4562.589838   -524.007636 10 11  7           
PG31  -9281.649412 -19250.656574 -15662.289259   -213.176002  6  6  6  99       
PG32 -12150.245108 -19558.785557  13588.481662   -442.151149  2  7  6 106       
*  2023  4  4  6 15  0.00000000
PG01 -13142.340213  11463.523189  19591.395383    196.394359  7  8  4  97       
PG02  10883.246746 -16235.333331 -17480.045301   -609.205370  3  8  5  63       
PG03 -23093.500212  12985.058266    128.788007   -336.828155  5  6  7  78       
PG04 -17304.613743   5106.934508 -19517.465347      8.541980  4  3  3  73       
PG05  22060.341589  -1631.578865 -14958.499516   -122.066061  4  5    105       
PG06   5568.815987  24255.385998  -9071.355860    585.397005  5  8  7  90       
PG07  -7070.047093  23295.655356  -9564.539358    208.992417  5  9  6  94       
PG08 -23956.625931  -4481.755775  10952.581079   -116.120844  2  7  7 107       
PG09  -7079.095153  13635.682639 -21735.707961   -187.179130     4  6  91       
PG10    214.223754 -16411.154041  20990.316870    -31.360325  3  6  3  92       
PG11  12513.202177  13443.420800 -19190.619132   -151.211958  6  7  5  87       
PG12  24390.089408 -10135.780228   1984.017469   -359.696963  3  8  5  89       
PG13  22623.317060  12750.218826   5884.754071    500.609486  3  8  5 111       
PG14  -3669.174577  17669.300763  19449.398747     14.829689  4  7  7  94       
PG15  24220.240687   1469.838415  10652.988099     27.525775  3  5  5 103       
PG16 -20886.710967  -3166.329430 -16675.734979   -511.235123  5  9  5  91       
PG17   6694.077515  18995.212756  17691.473014    708.905325  4  9  5 100       
PG18   5122.509299 -25141.233999  -6560.627496   -208.920897  5  8  1  72       
PG19  15451.240982  19489.457111   9483.310660    299.012358  5  9  6  78       
PG20  15786.510490   6064.107242 -20401.144860    441.017071  6  6  3  82       
PG21 -15371.448495   1558.966642  22154.147996    154.301030  6  7  4 115       
PG22 -17546.170035 -18772.633646   7494.938060    457.816509  7 12  6 101       
PG23  12297.196799 -18730.936321  14150.628653     14.580870  5  8  3  98       
PG24  14658.221550  -7144.972877  20544.974089   -138.309665  3  6  5 118       
PG25  18847.834987 -17090.517797  -7433.893934    432.955066  5  6  4  79       
PG26 -10835.274284 -11757.738398 -21345.561209    241.903267  7 10  2  89       
PG27 -23351.421972 -13099.525992    669.428896     66.451088  5  9  7 110       
PG28  -5650.852275 -24967.287012  -7120.622054     58.529417  6 11  7  75       
PG29  11488.510377  -9961.651569 -21835.062741   -593.988552  6  5  4  77       
PG30    847.997801  26348.339430   1772.904892   -524.006049 10 10  6  19       
PG31  -8954.867940 -20894.404906 -13542.987390   -213.176935  6  6  6 105       
PG32 -10663.104398 -18842.490685  15694.304415   -442.160496  1  7  6  85       
*  2023  4  4  6 30  0.00000000
PG01 -13250.895539   9087.894605  20743.656416    196.391192  7  8  4 102       
PG02  11242.727724 -14068.281812 -18990.226448   -609.202432  3  7  5  82       
PG03 -23040.348445  12699.866140   3017.993418   -336.820826  4  7  7  92       
PG04 -19094.224763   3910.036556 -18082.889902      8.550089  4  4  2  92       
PG05  20663.843619   -500.077833 -16916.414315   -122.067693  4  5  1 108       
PG06   5412.615485  25147.444762  -6336.681517    585.398657  5  8  7  79       
PG07  -7387.822175  21989.148803 -12035.214718    208.984975  5  7  6 105       
PG08 -24847.278025  -5169.489781   8419.066211   -116.122091  3  8  7  93       
PG09  -9264.895746  12493.919736 -21603.245231   -187.172139     4  6 109       
PG10   2225.908663 -17543.813570  19893.294303    -31.361285  3  6  3  90       
PG11  12330.613701  15547.378904 -17662.371955   -151.222974  7  7  5  80       
PG12  24130.433802  -9721.303221   4819.778615   -359.701371  3  9  5  99       
PG13  22923.016012  13235.610458   3083.972138    500.614482  3  9  4 104       
PG14  -5613.997365  18602.914155  18052.126032     14.839659  4  7  7  99       
PG15  25175.655985   2142.616296   8160.398907     27.528901  3  5  5 104       
PG16 -19203.167088  -4129.133555 -18390.452817   -511.233072  5  9  5  89       
PG17   4908.795481  18007.470721  19286.150176    708.906577  3  9  4 107       
PG18   5342.205230 -24235.302578  -9255.931249   -208.936027  4  9  1  93       
PG19  14324.275100  18923.785071  11980.341893    299.016756  5  9  5  93       
PG20  14036.972774   7696.655304 -21133.008577    441.015044  6  5  3  69       
PG21 -15660.309697   -830.354988  22061.882303    154.300817  6  7  5 112       
PG22 -16639.799115 -18427.386292  10104.470285    457.823100  7 11  6  65       
PG23  13646.425779 -19387.345571  11826.297134     14.583049  4  7  3  68       
PG24  15008.223608  -4702.317661  21021.477879   -138.323071  2  7  5 110       
PG25  19559.550346 -17204.744989  -4691.571680    432.957630  5  7  4  85       
PG26  -8847.224200 -13157.139139 -21415.088327    241.903198  8 10  1  92       
PG27 -23203.921948 -13249.493245  -2174.613761     66.443730  5 10  7  89       
PG28  -5448.511308 -25634.447140  -4363.893353     58.536242  6 11  7  66       
PG29  13522.270415  -8597.767003 -21247.795578   -593.990071  6  6  4  70       
PG30    502.053883  26384.682909  -1047.764915   -524.004561 10 10  6 108       
PG31  -8711.098015 -22301.433610 -11188.011812   -213.177597  6  7  6 104       
PG32  -8945.895843 -18099.712355  17535.454044   -442.169819  2  7  5  96       
EOF
